NORAD_CAT_ID,OBJECT_NAME,OBJECT_TYPE,EPOCH,MEAN_MOTION,ECCENTRICITY,INCLINATION,RA_OF_ASC_NODE,ARG_OF_PERICENTER,MEAN_ANOMALY,BSTAR,MEAN_MOTION_DOT,MEAN_MOTION_DDOT,TLE_LINE0,TLE_LINE1,TLE_LINE2,SEMIMAJOR_AXIS,PERIOD,APOGEE,PERIGEE,DECAYED
53590.0,STARLINK-4689,PAYLOAD,2024-01-19 15:47:55,15.08848208,0.0001479,53.2172,146.0289,67.9781,292.1368,5.9663e-05,6.62e-06,0.0,0 STARLINK-4689,1 53590U 22104C   24019.65828470  .00000662  00000-0  59663-4 0  9994,2 53590  53.2172 146.0289 0001479  67.9781 292.1368 15.08848208 77169,6917.855,95.437,540.743,538.697,0.0
53590.0,STARLINK-4689,PAYLOAD,2024-01-20 14:03:20,15.08833545,0.0001509,53.217,141.8665,82.5134,277.6029,4.2084e-06,-2.21e-06,0.0,0 STARLINK-4689,1 53590U 22104C   24020.58565961 -.00000221  00000-0  42084-5 0  9993,2 53590  53.2170 141.8665 0001509  82.5134 277.6029 15.08833545 78348,6917.9,95.438,540.809,538.721,0.0
53590.0,STARLINK-4689,PAYLOAD,2024-01-20 17:14:06,15.08838265,0.0001576,53.2175,141.2656,83.8667,276.2505,5.0795e-05,5.2e-06,0.0,0 STARLINK-4689,1 53590U 22104C   24020.71813546  .00000520  00000-0  50795-4 0  9991,2 53590  53.2175 141.2656 0001576  83.8667 276.2505 15.08838265 77321,6917.886,95.438,540.841,538.66,0.0
53590.0,STARLINK-4689,PAYLOAD,2024-01-21 13:54:07,15.08843976,0.0001561,53.2157,137.4074,77.1954,282.9212,9.7819e-05,1.269e-05,0.0,0 STARLINK-4689,1 53590U 22104C   24021.57925393  .00001269  00000-0  97819-4 0  9999,2 53590  53.2157 137.4074 0001561  77.1954 282.9212 15.08843976 78494,6917.868,95.437,540.813,538.653,0.0
53590.0,STARLINK-4689,PAYLOAD,2024-01-22 07:23:22,15.08843612,0.0001578,53.2153,134.1365,74.8001,285.3165,0.00026386,3.914e-05,0.0,0 STARLINK-4689,1 53590U 22104C   24022.30789500  .00003914  00000-0  26386-3 0  9998,2 53590  53.2153 134.1365 0001578  74.8001 285.3165 15.08843612 78606,6917.869,95.437,540.826,538.643,0.0
53590.0,STARLINK-4689,PAYLOAD,2024-01-22 12:09:31,15.08845128,0.0001374,53.2147,133.242,84.1331,275.9818,0.00017625,2.519e-05,0.0,0 STARLINK-4689,1 53590U 22104C   24022.50661365  .00002519  00000-0  17625-3 0  9994,2 53590  53.2147 133.2420 0001374  84.1331 275.9818 15.08845128 77596,6917.865,95.437,540.68,538.779,0.0
53590.0,STARLINK-4689,PAYLOAD,2024-01-22 13:44:54,15.08846166,0.0001387,53.2145,132.945,82.8194,277.2956,0.00018858,2.715e-05,0.0,0 STARLINK-4689,1 53590U 22104C   24022.57285295  .00002715  00000-0  18858-3 0  9992,2 53590  53.2145 132.9450 0001387  82.8194 277.2956 15.08846166 78647,6917.862,95.437,540.686,538.767,0.0
53590.0,STARLINK-4689,PAYLOAD,2024-01-23 12:00:18,15.08833681,0.0001604,53.2151,128.78,88.7614,271.3562,0.00055115,8.493e-05,0.0,0 STARLINK-4689,1 53590U 22104C   24023.50021666  .00008493  00000-0  55115-3 0  9992,2 53590  53.2151 128.7800 0001604  88.7614 271.3562 15.08833681 77746,6917.9,95.438,540.874,538.655,0.0
53590.0,STARLINK-4689,PAYLOAD,2024-01-23 13:35:40,15.08853033,0.0001444,53.2155,128.4822,88.0672,272.0485,0.00011425,1.531e-05,0.0,0 STARLINK-4689,1 53590U 22104C   24023.56644578  .00001531  00000-0  11425-3 0  9993,2 53590  53.2155 128.4822 0001444  88.0672 272.0485 15.08853033 77756,6917.841,95.437,540.704,538.707,0.0
53590.0,STARLINK-4689,PAYLOAD,2024-01-24 11:51:05,15.08837556,0.0001531,53.2161,124.3162,115.9421,244.1729,-7.6518e-05,-1.505e-05,0.0,0 STARLINK-4689,1 53590U 22104C   24024.49381141 -.00001505  00000-0 -76518-4 0  9998,2 53590  53.2161 124.3162 0001531 115.9421 244.1729 15.08837556 77892,6917.888,95.438,540.812,538.694,0.0
53590.0,STARLINK-4689,PAYLOAD,2024-01-24 13:26:28,15.08836513,0.0001491,53.2164,124.0191,111.6428,248.4723,-0.00010811,-2.008e-05,0.0,0 STARLINK-4689,1 53590U 22104C   24024.56005201 -.00002008  00000-0 -10811-3 0  9998,2 53590  53.2164 124.0191 0001491 111.6428 248.4723 15.08836513 78949,6917.891,95.438,540.788,538.725,0.0
53590.0,STARLINK-4689,PAYLOAD,2024-01-25 13:17:15,15.08843617,0.0001478,53.2175,119.5669,109.1523,250.963,-2.5481e-05,-6.94e-06,0.0,0 STARLINK-4689,1 53590U 22104C   24025.55365676 -.00000694  00000-0 -25481-4 0  9992,2 53590  53.2175 119.5669 0001478 109.1523 250.9630 15.08843617 79098,6917.869,95.437,540.757,538.712,0.0
53590.0,STARLINK-4689,PAYLOAD,2024-01-26 11:32:39,15.0884222,0.0001451,53.2173,115.4037,101.4937,258.6218,0.00022568,3.306e-05,0.0,0 STARLINK-4689,1 53590U 22104C   24026.48101562  .00003306  00000-0  22568-3 0  9990,2 53590  53.2173 115.4037 0001451 101.4937 258.6218 15.08842220 79237,6917.874,95.437,540.742,538.735,0.0
53590.0,STARLINK-4689,PAYLOAD,2024-01-27 11:23:27,15.08822773,0.0001735,53.2175,110.941,62.5117,297.6052,0.00039708,6.034e-05,0.0,0 STARLINK-4689,1 53590U 22104C   24027.47462679  .00006034  00000-0  39708-3 0  9994,2 53590  53.2175 110.9410 0001735  62.5117 297.6052 15.08822773 78347,6917.933,95.439,540.998,538.598,0.0
53590.0,STARLINK-4689,PAYLOAD,2024-01-27 12:58:51,15.08807142,0.0001848,53.2176,110.6418,67.7827,292.3361,0.00066545,0.00010309,0.0,0 STARLINK-4689,1 53590U 22104C   24027.54087055  .00010309  00000-0  66545-3 0  9992,2 53590  53.2176 110.6418 0001848  67.7827 292.3361 15.08807142 79397,6917.981,95.44,541.124,538.567,0.0
53590.0,STARLINK-4689,PAYLOAD,2024-01-28 04:52:41,15.08838695,0.0001868,53.2167,107.6753,61.048,299.0699,7.6778e-05,9.34e-06,0.0,0 STARLINK-4689,1 53590U 22104C   24028.20326386  .00000934  00000-0  76778-4 0  9992,2 53590  53.2167 107.6753 0001868  61.0480 299.0699 15.08838695 78450,6917.884,95.438,541.042,538.457,0.0
53590.0,STARLINK-4689,PAYLOAD,2024-01-28 11:14:15,15.08821433,0.0001835,53.2177,106.4815,64.5338,295.5843,0.00020407,2.96e-05,0.0,0 STARLINK-4689,1 53590U 22104C   24028.46823174  .00002960  00000-0  20407-3 0  9995,2 53590  53.2177 106.4815 0001835  64.5338 295.5843 15.08821433 78499,6917.937,95.439,541.072,538.533,0.0
53590.0,STARLINK-4689,PAYLOAD,2024-01-28 12:49:37,15.08837294,0.0001827,53.2172,106.1829,65.5246,294.5936,2.7598e-05,1.51e-06,0.0,0 STARLINK-4689,1 53590U 22104C   24028.53446716  .00000151  00000-0  27598-4 0  9995,2 53590  53.2172 106.1829 0001827  65.5246 294.5936 15.08837294 79547,6917.889,95.438,541.018,538.49,0.0
53590.0,STARLINK-4689,PAYLOAD,2024-01-29 11:05:00,15.0885133,0.0001652,53.2171,102.0186,70.9171,289.2,0.00012606,1.719e-05,0.0,0 STARLINK-4689,1 53590U 22104C   24029.46181404  .00001719  00000-0  12606-3 0  9992,2 53590  53.2171 102.0186 0001652  70.9171 289.2000 15.08851330 78640,6917.846,95.437,540.854,538.568,0.0
53590.0,STARLINK-4689,PAYLOAD,2024-01-29 14:15:46,15.08853064,0.0001469,53.2169,101.4226,86.6089,273.5071,0.0002439,3.597e-05,0.0,0 STARLINK-4689,1 53590U 22104C   24029.59428870  .00003597  00000-0  24390-3 0  9996,2 53590  53.2169 101.4226 0001469  86.6089 273.5071 15.08853064 79701,6917.84,95.437,540.722,538.689,0.0
53590.0,STARLINK-4689,PAYLOAD,2024-01-30 10:55:48,15.08840501,0.0001541,53.217,97.5571,91.295,268.8218,6.4462e-05,7.38e-06,0.0,0 STARLINK-4689,1 53590U 22104C   24030.45542200  .00000738  00000-0  64462-4 0  9996,2 53590  53.2170  97.5571 0001541  91.2950 268.8218 15.08840501 78791,6917.879,95.438,540.81,538.678,0.0
53590.0,STARLINK-4689,PAYLOAD,2024-01-30 14:06:34,15.08842741,0.000135,53.2165,96.9596,99.8593,260.2552,6.1437e-05,6.9e-06,0.0,0 STARLINK-4689,1 53590U 22104C   24030.58789950  .00000690  00000-0  61437-4 0  9991,2 53590  53.2165  96.9596 0001350  99.8593 260.2552 15.08842741 79853,6917.872,95.437,540.671,538.803,0.0
53590.0,STARLINK-4689,PAYLOAD,2024-01-31 10:46:35,15.08852555,0.0001469,53.2172,93.0921,95.4634,264.6526,-7.8319e-05,-1.535e-05,0.0,0 STARLINK-4689,1 53590U 22104C   24031.44901637 -.00001535  00000-0 -78319-4 0  9993,2 53590  53.2172  93.0921 0001469  95.4634 264.6526 15.08852555 79987,6917.842,95.437,540.723,538.691,0.0
53590.0,STARLINK-4689,PAYLOAD,2024-02-01 10:37:22,15.0883579,0.0001549,53.217,88.6324,96.6577,263.4592,7.0268e-05,8.3e-06,0.0,0 STARLINK-4689,1 53590U 22104C   24032.44262375  .00000830  00000-0  70268-4 0  9993,2 53590  53.2170  88.6324 0001549  96.6577 263.4592 15.08835790 79094,6917.893,95.438,540.83,538.687,0.0
53590.0,STARLINK-4689,PAYLOAD,2024-02-02 08:52:46,15.08839907,0.0001687,53.2179,84.4767,108.3183,251.7993,7.057e-05,8.35e-06,0.0,0 STARLINK-4689,1 53590U 22104C   24033.36998300  .00000835  00000-0  70570-4 0  9990,2 53590  53.2179  84.4767 0001687 108.3183 251.7993 15.08839907 80276,6917.881,95.438,540.913,538.579,0.0
53590.0,STARLINK-4689,PAYLOAD,2024-02-03 11:54:20,15.08839831,0.0001449,53.2167,79.4179,94.1558,265.96,6.3371e-05,7.21e-06,0.0,0 STARLINK-4689,1 53590U 22104C   24034.49606572  .00000721  00000-0  63371-4 0  9997,2 53590  53.2167  79.4179 0001449  94.1558 265.9600 15.08839831 79409,6917.881,95.438,540.748,538.744,0.0
53590.0,STARLINK-4689,PAYLOAD,2024-02-03 13:29:43,15.08840096,0.0001446,53.2166,79.1198,93.4049,266.7108,6.3982e-05,7.3e-06,0.0,0 STARLINK-4689,1 53590U 22104C   24034.56230550  .00000730  00000-0  63982-4 0  9992,2 53590  53.2166  79.1198 0001446  93.4049 266.7108 15.08840096 80454,6917.88,95.438,540.745,538.745,0.0
53590.0,STARLINK-4689,PAYLOAD,2024-02-04 11:45:06,15.08847296,0.0001535,53.2169,74.9556,93.3701,266.7467,0.0001376,1.903e-05,0.0,0 STARLINK-4689,1 53590U 22104C   24035.48965996  .00001903  00000-0  13760-3 0  9994,2 53590  53.2169  74.9556 0001535  93.3701 266.7467 15.08847296 80593,6917.858,95.437,540.785,538.661,0.0
53590.0,STARLINK-4689,PAYLOAD,2024-02-05 02:03:35,15.08839844,0.0001482,53.2165,72.28,95.4567,264.6594,5.2941e-05,5.55e-06,0.0,0 STARLINK-4689,1 53590U 22104C   24036.08582664  .00000555  00000-0  52941-4 0  9995,2 53590  53.2165  72.2800 0001482  95.4567 264.6594 15.08839844 79648,6917.881,95.438,540.771,538.721,0.0
53590.0,STARLINK-4689,PAYLOAD,2024-02-05 08:25:07,15.08842303,0.0001388,53.2158,71.0911,96.6363,263.4787,6.6041e-05,7.63e-06,0.0,0 STARLINK-4689,1 53590U 22104C   24036.35078455  .00000763  00000-0  66041-4 0  9990,2 53590  53.2158  71.0911 0001388  96.6363 263.4787 15.08842303 80728,6917.873,95.437,540.699,538.778,0.0
